*******************************************************************************
JPL/HORIZONS                  307261 (2002 MS4)            2013-Dec-01 19:31:35
Rec #:307261 (+COV)   Soln.date: 2013-Aug-10_19:52:08     # obs: 58 (1954-2009)
 
FK5/J2000.0 helio. ecliptic osc. elements (au, days, deg., period=Julian yrs): 
 
  EPOCH=  2452639.5 ! 2002-Dec-31.00 (CT)          Residual RMS= .40081        
   EC= .1486657876372542   QR= 35.40166162349869   TP= 2496532.1761928559      
   OM= 216.1017450505592   W=  215.5914596771641   IN= 17.70240736847655       
   A= 41.5837412727099     MA= 198.6716117696198   ADIST= 47.76582092192111    
   PER= 268.15973          N= .003675519           ANGMOM= .109695827          
   DAN= 46.25681           DDN= 36.27882           L= 70.3884968               
   B= -10.1933844          MOID= 34.43149948       TP= 2123-Mar-04.6761928559  
 
Asteroid physical parameters (km, seconds, rotational period in hours):        
   GM= n.a.                RAD= n.a.               ROTPER= n.a.                
   H= 3.7                  G= .150                 B-V= n.a.                   
                           ALBEDO= n.a.            STYP= n.a.                  
 
ASTEROID comments: 
1: soln ref.= JPL#11, OCC=3
2: source=ORB
*******************************************************************************
 

 

*******************************************************************************
Ephemeris / WWW_USER Sun Dec  1 19:31:35 2013 Pasadena, USA      / Horizons    
*******************************************************************************
Target body name: 307261 (2002 MS4)               {source: JPL#11}
Center body name: Earth (399)                     {source: DE-0431LE-0431}
Center-site name: San Pedro Martir
*******************************************************************************
Start time      : A.D. 2013-Jan-01 00:00:00.0000 UT      
Stop  time      : A.D. 2014-Dec-31 00:00:00.0000 UT      
Step-size       : 1440 minutes
*******************************************************************************
Target pole/equ : No model available
Target radii    : (unavailable)                                                
Center geodetic : 244.536700,31.0434585,2.8281109 {E-lon(deg),Lat(deg),Alt(km)}
Center cylindric: 244.536700,5471.93108,3271.4810 {E-lon(deg),Dxy(km),Dz(km)}
Center pole/equ : High-precision EOP model        {East-longitude +}
Center radii    : 6378.1 x 6378.1 x 6356.8 km     {Equator, meridian, pole}    
Target primary  : Sun
Vis. interferer : MOON (R_eq= 1737.400) km        {source: DE-0431LE-0431}
Rel. light bend : Sun, EARTH                      {source: DE-0431LE-0431}
Rel. lght bnd GM: 1.3271E+11, 3.9860E+05 km^3/s^2                              
Small-body perts: Yes                             {source: SB431-BIG16}
Atmos refraction: NO (AIRLESS)
RA format       : DEG
Time format     : BOTH
EOP file        : eop.131128.p140219                                           
EOP coverage    : DATA-BASED 1962-JAN-20 TO 2013-NOV-28. PREDICTS-> 2014-FEB-18
Units conversion: 1 au= 149597870.700 km, c= 299792.458 km/s, 1 day= 86400.0 s 
Table cut-offs 1: Elevation (-90.0deg=NO ),Airmass (>38.000=NO), Daylight (NO )
Table cut-offs 2: Solar Elongation (  0.0,180.0=NO ),Local Hour Angle( 0.0=NO )
*******************************************************************************
Initial FK5/J2000.0 heliocentric ecliptic osculating elements (au, days, deg.):
  EPOCH=  2452639.5 ! 2002-Dec-31.00 (CT)          Residual RMS= .40081        
   EC= .1486657876372542   QR= 35.40166162349869   TP= 2496532.1761928559      
   OM= 216.1017450505592   W=  215.5914596771641   IN= 17.70240736847655       
Asteroid physical parameters (km, seconds, rotational period in hours):        
   GM= n.a.                RAD= n.a.               ROTPER= n.a.                
   H= 3.7                  G= .150                 B-V= n.a.                   
                           ALBEDO= n.a.            STYP= n.a.                  
************************************************************************************************************
 Date__(UT)__HR:MN Date_________JDUT     R.A._(J2000.0)_DEC. dRA*cosD d(DEC)/dt            delta      deldot
************************************************************************************************************
$$SOE
 2014-Apr-05 00:00 2456752.500000000 *m  277.20819  -7.75053 0.054799  0.904917 46.8113709005367 -28.5910055
 2014-Apr-06 00:00 2456753.500000000 *m  277.20812  -7.74452 0.001416  0.900526 46.7948020197954 -28.5254179
 2014-Apr-07 00:00 2456754.500000000 *m  277.20769  -7.73854 -0.05179  0.895896 46.7782771377621 -28.4515157
 2014-Apr-08 00:00 2456755.500000000 *m  277.20690  -7.73260 -0.10482  0.891030 46.7618010425834 -28.3694238
 2014-Apr-09 00:00 2456756.500000000 *m  277.20575  -7.72668 -0.15765  0.885931 46.7453784510451 -28.2792612
 2014-Apr-10 00:00 2456757.500000000 *m  277.20425  -7.72080 -0.21026  0.880602 46.7290140108490 -28.1811450
 2014-Apr-11 00:00 2456758.500000000 *m  277.20239  -7.71495 -0.26266  0.875046 46.7127123010731 -28.0751922
 2014-Apr-12 00:00 2456759.500000000 *m  277.20018  -7.70914 -0.31482  0.869266 46.6964778317276 -27.9615209
 2014-Apr-13 00:00 2456760.500000000 *m  277.19762  -7.70337 -0.36675  0.863263 46.6803150438270 -27.8402474
 2014-Apr-14 00:00 2456761.500000000 *   277.19470  -7.69764 -0.41843  0.857042 46.6642283117409 -27.7114810
 2014-Apr-15 00:00 2456762.500000000 *   277.19144  -7.69195 -0.46988  0.850602 46.6482219496320 -27.5753154
 2014-Apr-16 00:00 2456763.500000000 *   277.18784  -7.68630 -0.52107  0.843946 46.6323002233630 -27.4318185
 2014-Apr-17 00:00 2456764.500000000 *   277.18389  -7.68070 -0.57203  0.837073 46.6164673682453 -27.2810228
 2014-Apr-18 00:00 2456765.500000000 *   277.17959  -7.67514 -0.62274  0.829984 46.6007276115393 -27.1229191
 2014-Apr-19 00:00 2456766.500000000 *   277.17496  -7.66963 -0.67321  0.822676 46.5850851971542 -26.9574551
 2014-Apr-20 00:00 2456767.500000000 *   277.16998  -7.66416 -0.72343  0.815149 46.5695444091047 -26.7845416
 2014-Apr-21 00:00 2456768.500000000 *   277.16467  -7.65875 -0.77340  0.807400 46.5541095903549 -26.6040618
 2014-Apr-22 00:00 2456769.500000000 *   277.15902  -7.65339 -0.82310  0.799428 46.5387851545712 -26.4158859
 2014-Apr-23 00:00 2456770.500000000 *   277.15304  -7.64808 -0.87252  0.791232 46.5235755895113 -26.2198856
 2014-Apr-24 00:00 2456771.500000000 *   277.14673  -7.64282 -0.92163  0.782812 46.5084854517345 -26.0159493
 2014-Apr-25 00:00 2456772.500000000 *   277.14009  -7.63762 -0.97040  0.774169 46.4935193528835 -25.8039960
 2014-Apr-26 00:00 2456773.500000000 *   277.13312  -7.63248 -1.01880  0.765304 46.4786819382072 -25.5839881
 2014-Apr-27 00:00 2456774.500000000 *m  277.12582  -7.62740 -1.06679  0.756220 46.4639778586889 -25.3559404
 2014-Apr-28 00:00 2456775.500000000 *m  277.11821  -7.62237 -1.11435  0.746923 46.4494117392478 -25.1199242
 2014-Apr-29 00:00 2456776.500000000 *m  277.11028  -7.61741 -1.16143  0.737418 46.4349881466342 -24.8760644
 2014-Apr-30 00:00 2456777.500000000 *m  277.10203  -7.61251 -1.20801  0.727709 46.4207115611286 -24.6245292
 2014-May-01 00:00 2456778.500000000 *m  277.09347  -7.60768 -1.25406  0.717805 46.4065863554435 -24.3655162
 2014-May-02 00:00 2456779.500000000 *m  277.08460  -7.60291 -1.29956  0.707710 46.3926167824406 -24.0992362
 2014-May-03 00:00 2456780.500000000 *m  277.07543  -7.59821 -1.34450  0.697431 46.3788069711436 -23.8259011
 2014-May-04 00:00 2456781.500000000 *m  277.06596  -7.59357 -1.38886  0.686974 46.3651609289159 -23.5457153
 2014-May-05 00:00 2456782.500000000 *m  277.05620  -7.58901 -1.43263  0.676343 46.3516825470237 -23.2588721
 2014-May-06 00:00 2456783.500000000 *m  277.04614  -7.58452 -1.47580  0.665544 46.3383756070474 -22.9655541
 2014-May-07 00:00 2456784.500000000 *m  277.03580  -7.58009 -1.51836  0.654581 46.3252437863566 -22.6659358
 2014-May-08 00:00 2456785.500000000 *m  277.02517  -7.57574 -1.56030  0.643458 46.3122906617602 -22.3601874
 2014-May-09 00:00 2456786.500000000 *m  277.01426  -7.57147 -1.60162  0.632180 46.2995197112747 -22.0484771
 2014-May-10 00:00 2456787.500000000 *m  277.00308  -7.56726 -1.64232  0.620752 46.2869343146844 -21.7309727
 2014-May-11 00:00 2456788.500000000 *m  276.99163  -7.56314 -1.68238  0.609176 46.2745377542260 -21.4078394
 2014-May-12 00:00 2456789.500000000 *m  276.97991  -7.55909 -1.72182  0.597458 46.2623332173105 -21.0792350
 2014-May-13 00:00 2456790.500000000 *   276.96794  -7.55512 -1.76062  0.585600 46.2503238035701 -20.7452997
 2014-May-14 00:00 2456791.500000000 *   276.95570  -7.55122 -1.79880  0.573604 46.2385125383853 -20.4061440
 2014-May-15 00:00 2456792.500000000 *   276.94321  -7.54741 -1.83637  0.561471 46.2269023940124 -20.0618354
 2014-May-16 00:00 2456793.500000000 *   276.93047  -7.54368 -1.87332  0.549204 46.2154963173370 -19.7123892
 2014-May-17 00:00 2456794.500000000 *   276.91749  -7.54002 -1.90966  0.536799 46.2042972605492 -19.3577685
 2014-May-18 00:00 2456795.500000000 *   276.90426  -7.53645 -1.94540  0.524258 46.1933082088682 -18.9978945
 2014-May-19 00:00 2456796.500000000 *   276.89080  -7.53297 -1.98052  0.511580 46.1825321991872 -18.6326669
 2014-May-20 00:00 2456797.500000000 *   276.87711  -7.52956 -2.01501  0.498764 46.1719723256358 -18.2619880
 2014-May-21 00:00 2456798.500000000 *   276.86319  -7.52625 -2.04884  0.485811 46.1616317315722 -17.8857842
 2014-May-22 00:00 2456799.500000000 *   276.84905  -7.52301 -2.08200  0.472724 46.1515135906449 -17.5040221
 2014-May-23 00:00 2456800.500000000 *   276.83469  -7.51987 -2.11445  0.459506 46.1416210810426 -17.1167164
 2014-May-24 00:00 2456801.500000000 *   276.82011  -7.51681 -2.14617  0.446161 46.1319573568723 -16.7239319
 2014-May-25 00:00 2456802.500000000 *   276.80533  -7.51384 -2.17712  0.432695 46.1225255195902 -16.3257816
